{"type": "FeatureCollection", "features": [ {"type": "Feature", "properties": {"norad_id": 40697, "name": "SENTINEL-2A", "group": "resource", "lat": -16.082575748424034, "lon": -132.17150094006706, "alt_km": 793.9287702737065, "timestamp": "2025-12-03T15:48:02.758889+00:00", "meta": {"OBJECT_NAME": "SENTINEL-2A", "OBJECT_ID": "2015-028A", "EPOCH": "2025-12-03T08:10:25.303296", "MEAN_MOTION": 14.3082125, "ECCENTRICITY": 0.00010384, "INCLINATION": 98.5703, "RA_OF_ASC_NODE": 50.0071, "ARG_OF_PERICENTER": 93.7749, "MEAN_ANOMALY": 266.3553, "EPHEMERIS_TYPE": 0, "CLASSIFICATION_TYPE": "U", "NORAD_CAT_ID": 40697, "ELEMENT_SET_NO": 999, "REV_AT_EPOCH": 54572, "BSTAR": 0.00011436195, "MEAN_MOTION_DOT": 2.56e-06, "MEAN_MOTION_DDOT": 0}, "tle": {"line1": "1 40697U 15028A   25337.34057064  .00000256  00000+0  11436-3 0  9991", "line2": "2 40697  98.5703  50.0071 0001038  93.7749 266.3553 14.30821250545723"}}, "geometry": {"type": "Point", "coordinates": [-132.17150094006706, -16.082575748424034]}}, {"type": "Feature", "properties": {"norad_id": 40701, "name": "GAOFEN-8", "group": "resource", "lat": -25.605241535048684, "lon": 159.07246337748248, "alt_km": 464.93000979253884, "timestamp": "2025-12-03T15:48:02.758898+00:00", "meta": {"OBJECT_NAME": "GAOFEN-8", "OBJECT_ID": "2015-030A", "EPOCH": "2025-12-03T08:06:21.878208", "MEAN_MOTION": 15.38046066, "ECCENTRICITY": 0.00111818, "INCLINATION": 97.6906, "RA_OF_ASC_NODE": 155.0235, "ARG_OF_PERICENTER": 171.1864, "MEAN_ANOMALY": 188.9579, "EPHEMERIS_TYPE": 0, "CLASSIFICATION_TYPE": "U", "NORAD_CAT_ID": 40701, "ELEMENT_SET_NO": 999, "REV_AT_EPOCH": 58126, "BSTAR": 0.00064936922, "MEAN_MOTION_DOT": 0.0002432, "MEAN_MOTION_DDOT": 0}, "tle": {"line1": "1 40701U 15030A   25337.33775322  .00024320  00000+0  64937-3 0  9995", "line2": "2 40701  97.6906 155.0235 0011181 171.1864 188.9579 15.38046066581260"}}, "geometry": {"type": "Point", "coordinates": [159.07246337748248, -25.605241535048684]}}, {"type": "Feature", "properties": {"norad_id": 40718, "name": "CARBONITE 1 (CBNT-1)", "group": "resource", "lat": -76.58233177390976, "lon": -166.65710368721292, "alt_km": 624.7397166223573, "timestamp": "2025-12-03T15:48:02.758908+00:00", "meta": {"OBJECT_NAME": "CARBONITE 1 (CBNT-1)", "OBJECT_ID": "2015-032D", "EPOCH": "2025-12-03T08:03:29.385792", "MEAN_MOTION": 14.82670639, "ECCENTRICITY": 0.00138352, "INCLINATION": 97.64, "RA_OF_ASC_NODE": 158.7942, "ARG_OF_PERICENTER": 213.258, "MEAN_ANOMALY": 146.7766, "EPHEMERIS_TYPE": 0, "CLASSIFICATION_TYPE": "U", "NORAD_CAT_ID": 40718, "ELEMENT_SET_NO": 999, "REV_AT_EPOCH": 56031, "BSTAR": 0.00045555172, "MEAN_MOTION_DOT": 3.629e-05, "MEAN_MOTION_DDOT": 0}, "tle": {"line1": "1 40718U 15032D   25337.33575678  .00003629  00000+0  45555-3 0  9991", "line2": "2 40718  97.6400 158.7942 0013835 213.2580 146.7766 14.82670639560313"}}, "geometry": {"type": "Point", "coordinates": [-166.65710368721292, -76.58233177390976]}}, {"type": "Feature", "properties": {"norad_id": 40878, "name": "YAOGAN-27", "group": "resource", "lat": 18.343249544436567, "lon": -35.69846639418538, "alt_km": 1197.8415574423288, "timestamp": "2025-12-03T15:48:02.758918+00:00", "meta": {"OBJECT_NAME": "YAOGAN-27", "OBJECT_ID": "2015-040A", "EPOCH": "2025-12-03T08:24:30.061152", "MEAN_MOTION": 13.16059648, "ECCENTRICITY": 0.00077419, "INCLINATION": 100.1004, "RA_OF_ASC_NODE": 327.3954, "ARG_OF_PERICENTER": 309.863, "MEAN_ANOMALY": 50.1803, "EPHEMERIS_TYPE": 0, "CLASSIFICATION_TYPE": "U", "NORAD_CAT_ID": 40878, "ELEMENT_SET_NO": 999, "REV_AT_EPOCH": 49190, "BSTAR": 4.2044395e-05, "MEAN_MOTION_DOT": -2.6e-07, "MEAN_MOTION_DDOT": 0}, "tle": {"line1": "1 40878U 15040A   25337.35034793 -.00000026  00000+0  42044-4 0  9997", "line2": "2 40878 100.1004 327.3954 0007741 309.8630  50.1803 13.16059648491909"}}, "geometry": {"type": "Point", "coordinates": [-35.69846639418538, 18.343249544436567]}}, {"type": "Feature", "properties": {"norad_id": 40894, "name": "GAOFEN-9 01", "group": "resource", "lat": -31.69166770558668, "lon": -167.75778592763513, "alt_km": 645.2611014086615, "timestamp": "2025-12-03T15:48:02.758927+00:00", "meta": {"OBJECT_NAME": "GAOFEN-9 01", "OBJECT_ID": "2015-047A", "EPOCH": "2025-12-03T08:22:11.350272", "MEAN_MOTION": 14.82383427, "ECCENTRICITY": 0.00289365, "INCLINATION": 97.6556, "RA_OF_ASC_NODE": 16.7096, "ARG_OF_PERICENTER": 63.8772, "MEAN_ANOMALY": 296.5414, "EPHEMERIS_TYPE": 0, "CLASSIFICATION_TYPE": "U", "NORAD_CAT_ID": 40894, "ELEMENT_SET_NO": 999, "REV_AT_EPOCH": 55117, "BSTAR": 0.00022700091, "MEAN_MOTION_DOT": 1.779e-05, "MEAN_MOTION_DDOT": 0}, "tle": {"line1": "1 40894U 15047A   25337.34874248  .00001779  00000+0  22700-3 0  9999", "line2": "2 40894  97.6556  16.7096 0028936  63.8772 296.5414 14.82383427551177"}}, "geometry": {"type": "Point", "coordinates": [-167.75778592763513, -31.69166770558668]}}, {"type": "Feature", "properties": {"norad_id": 41026, "name": "YAOGAN-28", "group": "resource", "lat": 75.73778756538728, "lon": 85.51682219843441, "alt_km": 484.65987211241736, "timestamp": "2025-12-03T15:48:02.758936+00:00", "meta": {"OBJECT_NAME": "YAOGAN-28", "OBJECT_ID": "2015-064A", "EPOCH": "2025-12-03T09:09:28.334016", "MEAN_MOTION": 15.24093338, "ECCENTRICITY": 0.00119487, "INCLINATION": 97.2798, "RA_OF_ASC_NODE": 115.44, "ARG_OF_PERICENTER": 157.008, "MEAN_ANOMALY": 203.1695, "EPHEMERIS_TYPE": 0, "CLASSIFICATION_TYPE": "U", "NORAD_CAT_ID": 41026, "ELEMENT_SET_NO": 999, "REV_AT_EPOCH": 56082, "BSTAR": 0.00047531091, "MEAN_MOTION_DOT": 0.00011505, "MEAN_MOTION_DDOT": 0}, "tle": {"line1": "1 41026U 15064A   25337.38157794  .00011505  00000+0  47531-3 0  9997", "line2": "2 41026  97.2798 115.4400 0011948 157.0080 203.1695 15.24093338560821"}}, "geometry": {"type": "Point", "coordinates": [85.51682219843441, 75.73778756538728]}}, {"type": "Feature", "properties": {"norad_id": 41038, "name": "YAOGAN-29", "group": "resource", "lat": 79.9426784814788, "lon": -51.876853031570775, "alt_km": 612.7838698702171, "timestamp": "2025-12-03T15:48:02.758945+00:00", "meta": {"OBJECT_NAME": "YAOGAN-29", "OBJECT_ID": "2015-069A", "EPOCH": "2025-12-03T08:56:45.187872", "MEAN_MOTION": 14.82865731, "ECCENTRICITY": 7.66e-05, "INCLINATION": 98.0228, "RA_OF_ASC_NODE": 0.514, "ARG_OF_PERICENTER": 7.4265, "MEAN_ANOMALY": 352.696, "EPHEMERIS_TYPE": 0, "CLASSIFICATION_TYPE": "U", "NORAD_CAT_ID": 41038, "ELEMENT_SET_NO": 999, "REV_AT_EPOCH": 54160, "BSTAR": 0.00010395053, "MEAN_MOTION_DOT": 7.88e-06, "MEAN_MOTION_DDOT": 0}, "tle": {"line1": "1 41038U 15069A   25337.37274523  .00000788  00000+0  10395-3 0  9993", "line2": "2 41038  98.0228   0.5140 0000766   7.4265 352.6960 14.82865731541602"}}, "geometry": {"type": "Point", "coordinates": [-51.876853031570775, 79.9426784814788]}}, {"type": "Feature", "properties": {"norad_id": 41167, "name": "KENT RIDGE 1", "group": "resource", "lat": -4.137234888743257, "lon": -97.16990151299306, "alt_km": 493.35210315280074, "timestamp": "2025-12-03T15:48:02.758954+00:00", "meta": {"OBJECT_NAME": "KENT RIDGE 1", "OBJECT_ID": "2015-077B", "EPOCH": "2025-12-03T04:51:29.321280", "MEAN_MOTION": 15.21515134, "ECCENTRICITY": 0.00086777, "INCLINATION": 14.9806, "RA_OF_ASC_NODE": 281.9029, "ARG_OF_PERICENTER": 355.7263, "MEAN_ANOMALY": 4.2984, "EPHEMERIS_TYPE": 0, "CLASSIFICATION_TYPE": "U", "NORAD_CAT_ID": 41167, "ELEMENT_SET_NO": 999, "REV_AT_EPOCH": 55118, "BSTAR": 0.0002495538, "MEAN_MOTION_DOT": 6.551e-05, "MEAN_MOTION_DDOT": 0}, "tle": {"line1": "1 41167U 15077B   25337.20242270  .00006551  00000+0  24955-3 0  9992", "line2": "2 41167  14.9806 281.9029 0008677 355.7263   4.2984 15.21515134551184"}}, "geometry": {"type": "Point", "coordinates": [-97.16990151299306, -4.137234888743257]}}, {"type": "Feature", "properties": {"norad_id": 41194, "name": "GAOFEN-4", "group": "resource", "lat": -0.0331990172206871, "lon": 55.38324382839647, "alt_km": 35795.66908034847, "timestamp": "2025-12-03T15:48:02.758967+00:00", "meta": {"OBJECT_NAME": "GAOFEN-4", "OBJECT_ID": "2015-083A", "EPOCH": "2025-12-03T07:24:34.696224", "MEAN_MOTION": 1.00273652, "ECCENTRICITY": 0.00037394, "INCLINATION": 0.1444, "RA_OF_ASC_NODE": 80.7116, "ARG_OF_PERICENTER": 104.186, "MEAN_ANOMALY": 104.3292, "EPHEMERIS_TYPE": 0, "CLASSIFICATION_TYPE": "U", "NORAD_CAT_ID": 41194, "ELEMENT_SET_NO": 999, "REV_AT_EPOCH": 3656, "BSTAR": 0, "MEAN_MOTION_DOT": -3.16e-06, "MEAN_MOTION_DDOT": 0}, "tle": {"line1": "1 41194U 15083A   25337.30873491 -.00000316  00000+0  00000+0 0  9990", "line2": "2 41194   0.1444  80.7116 0003739 104.1860 104.3292  1.00273652 36566"}}, "geometry": {"type": "Point", "coordinates": [55.38324382839647, -0.0331990172206871]}}, {"type": "Feature", "properties": {"norad_id": 41240, "name": "JASON-3", "group": "resource", "lat": -18.83861486069028, "lon": 168.1914459710723, "alt_km": 1313.0448929467775, "timestamp": "2025-12-03T15:48:02.758976+00:00", "meta": {"OBJECT_NAME": "JASON-3", "OBJECT_ID": "2016-002A", "EPOCH": "2025-12-03T06:35:15.064224", "MEAN_MOTION": 12.87626005, "ECCENTRICITY": 0.00071434, "INCLINATION": 66.0392, "RA_OF_ASC_NODE": 177.7243, "ARG_OF_PERICENTER": 270.3231, "MEAN_ANOMALY": 89.6969, "EPHEMERIS_TYPE": 0, "CLASSIFICATION_TYPE": "U", "NORAD_CAT_ID": 41240, "ELEMENT_SET_NO": 999, "REV_AT_EPOCH": 46202, "BSTAR": 0.0002114461, "MEAN_MOTION_DOT": -9e-08, "MEAN_MOTION_DDOT": 0}, "tle": {"line1": "1 41240U 16002A   25337.27447991 -.00000009  00000+0  21145-3 0  9998", "line2": "2 41240  66.0392 177.7243 0007143 270.3231  89.6969 12.87626005462021"}}, "geometry": {"type": "Point", "coordinates": [168.1914459710723, -18.83861486069028]}}]}